     2.100          NAVIGATION                              RINEX VERSION / TYPE
fic2rin                                 10/18/2016 00:04:55 PGM / RUN BY / DATE
                                                            END OF HEADER
 5 16 10 17 22  0  0.0 -.839005224407D-04  .250111042988D-11  .000000000000D+00
     .610000000000D+02 -.565937500000D+02  .525093300815D-08  .268424627107D+01
    -.289268791676D-05  .482462474611D-02  .802613794804D-05  .515361187172D+04
     .165600000000D+06 -.335276126862D-07  .252165176551D+01 -.838190317154D-07
     .946613571695D+00  .218531250000D+03  .534191444544D+00 -.831141763248D-08
    -.560380484954D-09  .100000000000D+01  .191900000000D+04  .000000000000D+00
     .240000000000D+01  .000000000000D+00 -.107102096081D-07  .610000000000D+02
     .158406000000D+06  .400000000000D+01
 6 16 10 17 22  0  0.0  .260905828327D-03  .500222085975D-11  .000000000000D+00
     .840000000000D+02  .359062500000D+02  .489234664302D-08  .351067299019D+00
     .166147947311D-05  .209182384424D-03  .569783151150D-05  .515377659988D+04
     .165600000000D+06  .167638063431D-07  .148490957670D+01 -.130385160446D-07
     .964850261658D+00  .268718750000D+03 -.168822603083D+01 -.830427447779D-08
     .536450916763D-09  .100000000000D+01  .191900000000D+04  .000000000000D+00
     .240000000000D+01  .000000000000D+00  .419095158577D-08  .840000000000D+02
     .158406000000D+06  .400000000000D+01
 7 16 10 17 22  0  0.0  .418604351580D-03 -.318323145621D-11  .000000000000D+00
     .400000000000D+01  .787187500000D+02  .484627329531D-08 -.908742092664D+00
     .406429171562D-05  .100543148583D-01  .181607902050D-05  .515362437630D+04
     .165600000000D+06  .244006514549D-06 -.163135619208D+01  .186264514923D-08
     .964466285161D+00  .346656250000D+03 -.262109582072D+01 -.865321758410D-08
     .181436128972D-09  .100000000000D+01  .191900000000D+04  .000000000000D+00
     .240000000000D+01  .000000000000D+00 -.111758708954D-07  .400000000000D+01
     .158406000000D+06  .400000000000D+01
 8 16 10 17 22  0  0.0 -.357958488166D-04 -.136424205266D-11  .000000000000D+00
     .105000000000D+03 -.311875000000D+02  .399373778378D-08  .267560901694D+01
    -.162795186043D-05  .183494738303D-02  .136122107506D-04  .515377230453D+04
     .165600000000D+06 -.428408384323D-07  .431747688984D+00 -.149011611938D-07
     .964913480200D+00  .118062500000D+03 -.101091075379D+01 -.769139180591D-08
     .338228374284D-09  .100000000000D+01  .191900000000D+04  .000000000000D+00
     .240000000000D+01  .000000000000D+00  .512227416039D-08  .105000000000D+03
     .158406000000D+06  .400000000000D+01
 9 16 10 17 22  0  0.0  .227023847401D-03  .727595761418D-11  .000000000000D+00
     .520000000000D+02  .102656250000D+03  .432696594979D-08  .197016473645D+01
     .519677996635D-05  .611903145909D-03  .134073197842D-04  .515377859306D+04
     .165600000000D+06 -.260770320892D-07 -.271004207672D+01 -.558793544769D-07
     .954820650376D+00  .114906250000D+03  .189879400604D+01 -.793033033009D-08
    -.746459664470D-10  .100000000000D+01  .191900000000D+04  .000000000000D+00
     .240000000000D+01  .000000000000D+00  .139698386192D-08  .520000000000D+02
     .158406000000D+06  .400000000000D+01
10 16 10 17 22  0  0.0 -.108505599201D-03 -.306954461848D-11  .000000000000D+00
     .900000000000D+02 -.526875000000D+02  .483484424781D-08 -.233191784012D+01
    -.278837978840D-05  .181219226215D-02  .829994678497D-05  .515367622757D+04
     .165600000000D+06 -.204890966415D-07  .253158636758D+01 -.745058059692D-07
     .959810352342D+00  .221562500000D+03 -.290484920599D+01 -.819105547605D-08
    -.528236288876D-09  .100000000000D+01  .191900000000D+04  .000000000000D+00
     .240000000000D+01  .000000000000D+00  .232830643654D-08  .900000000000D+02
     .158406000000D+06  .400000000000D+01
11 16 10 17 22  0  0.0 -.667194370180D-03 -.102318153949D-11  .000000000000D+00
     .820000000000D+02  .668437500000D+02  .625276045257D-08 -.815949419797D+00
     .359117984772D-05  .168205958325D-01  .854395329952D-05  .515367782402D+04
     .165600000000D+06 -.184401869774D-06  .110607565219D+01  .208616256714D-06
     .897965827012D+00  .188468750000D+03  .158778991090D+01 -.920395481023D-08
     .822534261854D-09  .100000000000D+01  .191900000000D+04  .000000000000D+00
     .340000000000D+01  .000000000000D+00 -.121071934700D-07  .820000000000D+02
     .158406000000D+06  .400000000000D+01
12 16 10 17 22  0  0.0  .389282591641D-03  .113686837722D-12  .000000000000D+00
     .600000000000D+01 -.122750000000D+03  .391337729359D-08 -.150171940366D+01
    -.637583434582D-05  .604588398710D-02  .613555312157D-05  .515364357948D+04
     .165600000000D+06  .223517417908D-06 -.551738602699D+00 -.949949026108D-07
     .990192938676D+00  .278281250000D+03  .783414004681D+00 -.792247285994D-08
    -.508235455761D-09  .100000000000D+01  .191900000000D+04  .000000000000D+00
     .240000000000D+01  .000000000000D+00 -.125728547573D-07  .600000000000D+01
     .158406000000D+06  .400000000000D+01
13 16 10 17 22  0  0.0 -.499133020639D-04 -.204636307899D-11  .000000000000D+00
     .890000000000D+02  .980625000000D+02  .411159983607D-08  .954017682437D-01
     .521168112755D-05  .401623756625D-02  .131241977215D-04  .515370133209D+04
     .165600000000D+06 -.223517417908D-07 -.258719215295D+01  .745058059692D-08
     .971009420337D+00  .130593750000D+03  .193026187717D+01 -.793283043423D-08
     .992898501065D-10  .100000000000D+01  .191900000000D+04  .000000000000D+00
     .240000000000D+01  .000000000000D+00 -.111758708954D-07  .890000000000D+02
     .158406000000D+06  .400000000000D+01
14 16 10 17 22  0  0.0 -.406024046242D-04 -.193267624127D-11  .000000000000D+00
     .790000000000D+02  .865000000000D+02  .425196282560D-08  .144219372491D+01
     .448152422905D-05  .872768985573D-02  .120904296637D-04  .515360480118D+04
     .165600000000D+06 -.214204192162D-06 -.262515401984D+01 -.894069671631D-07
     .963534262978D+00  .151093750000D+03 -.194487237064D+01 -.796640326124D-08
     .478591363823D-10  .100000000000D+01  .191900000000D+04  .000000000000D+00
     .240000000000D+01  .000000000000D+00 -.931322574615D-08  .790000000000D+02
     .158406000000D+06  .400000000000D+01
15 16 10 17 22  0  0.0 -.331209972501D-03 -.136424205266D-11  .000000000000D+00
     .660000000000D+02  .705937500000D+02  .502985237068D-08  .113259133058D+01
     .400654971600D-05  .861912942491D-02  .135470181704D-04  .515369744110D+04
     .165600000000D+06 -.502914190292D-07 -.276612883737D+01  .104308128357D-06
     .930529120959D+00  .101125000000D+03  .516140970886D+00 -.832356099544D-08
    -.232866842696D-09  .100000000000D+01  .191900000000D+04  .000000000000D+00
     .240000000000D+01  .000000000000D+00 -.107102096081D-07  .660000000000D+02
     .158406000000D+06  .400000000000D+01
16 16 10 17 22  0  0.0  .115456059575D-04  .170530256582D-11  .000000000000D+00
     .200000000000D+02 -.127031250000D+03  .382051628270D-08  .282795489922D+01
    -.667944550514D-05  .871285214089D-02  .691413879395D-05  .515358348465D+04
     .165600000000D+06 -.968575477600D-07 -.532934164470D+00 -.651925802231D-07
     .990701583589D+00  .263250000000D+03  .383216446709D+00 -.781603985515D-08
    -.478234206089D-09  .100000000000D+01  .191900000000D+04  .000000000000D+00
     .240000000000D+01  .000000000000D+00 -.107102096081D-07  .200000000000D+02
     .158406000000D+06  .400000000000D+01
17 16 10 17 22  0  0.0 -.200860202312D-03  .682121026330D-12  .000000000000D+00
     .790000000000D+02 -.361875000000D+02  .368801076331D-08  .185949748534D+01
    -.184960663319D-05  .112924106652D-01  .144299119711D-04  .515376707840D+04
     .165600000000D+06 -.949949026108D-07  .486272348635D+00 -.270083546638D-06
     .978047558715D+00  .107281250000D+03 -.191931761878D+01 -.757674417324D-08
     .479662837025D-09  .100000000000D+01  .191900000000D+04  .000000000000D+00
     .340000000000D+01  .000000000000D+00 -.107102096081D-07  .790000000000D+02
     .158406000000D+06  .400000000000D+01
18 16 10 17 22  0  0.0  .567880924791D-03  .341060513165D-11  .000000000000D+00
     .410000000000D+02 -.661250000000D+02  .559594737938D-08 -.284612290225D+01
    -.348314642906D-05  .172680473188D-01  .711902976036D-05  .515372049332D+04
     .165600000000D+06  .324100255966D-06  .249746671312D+01 -.894069671631D-07
     .925289017156D+00  .218968750000D+03 -.185611905159D+01 -.838784938760D-08
    -.457161899771D-09  .100000000000D+01  .191900000000D+04  .000000000000D+00
     .240000000000D+01  .000000000000D+00 -.111758708954D-07  .410000000000D+02
     .158406000000D+06  .400000000000D+01
19 16 10 17 22  0  0.0 -.521562527865D-03  .568434188608D-12  .000000000000D+00
     .670000000000D+02 -.192500000000D+02  .381373028575D-08 -.128329706225D+01
    -.815838575363D-06  .104156899033D-01  .134352594614D-04  .515363971138D+04
     .165600000000D+06  .244006514549D-06  .534644031899D+00  .856816768646D-07
     .975171736800D+00  .121812500000D+03  .877366120586D+00 -.762924636016D-08
     .523950396066D-09  .100000000000D+01  .191900000000D+04  .000000000000D+00
     .240000000000D+01  .000000000000D+00 -.149011611938D-07  .670000000000D+02
     .158406000000D+06  .400000000000D+01
20 16 10 17 22  0  0.0  .441329553723D-03  .193267624127D-11  .000000000000D+00
     .730000000000D+02 -.580312500000D+02  .578988402905D-08  .100309387633D+01
    -.300444662571D-05  .471886224113D-02  .689551234245D-05  .515358839035D+04
     .165600000000D+06 -.707805156708D-07  .244585625358D+01 -.335276126862D-07
     .926544860644D+00  .230968750000D+03  .146551859902D+01 -.876929384772D-08
    -.515378610445D-09  .100000000000D+01  .191900000000D+04  .000000000000D+00
     .240000000000D+01  .000000000000D+00 -.838190317154D-08  .730000000000D+02
     .158406000000D+06  .400000000000D+01
